start=new Date('2021-12-05T00:00:00.000Z').valueOf();
sats=[{"OBJECT_ID":"2021-027T","PERIOD":"95.592","OBJECT_TYPE":"PAYLOAD","NORAD_CAT_ID":"48109","OBJECT_NAME":"STARLINK-2445","MEAN_ANOMALY":"302.7637","BSTAR":"0.00010137000000","PERIAPSIS":"545.994","DECAY_DATE":null,"EPHEMERIS_TYPE":"0","EPOCH":"2021-12-04T10:15:10.561248","MEAN_ELEMENT_THEORY":"SGP4","RCS_SIZE":"LARGE","TIME_SYSTEM":"UTC","MEAN_MOTION_DDOT":"0.0000000000000","TLE_LINE1":"1 48109U 21027T   21338.42720557  .00001228  00000-0  10137-3 0  9991","ARG_OF_PERICENTER":"57.3524","ECCENTRICITY":"0.00017800","CLASSIFICATION_TYPE":"U","TLE_LINE2":"2 48109  53.0552 317.9438 0001780  57.3524 302.7637 15.06395833 37855","REV_AT_EPOCH":"3785","INCLINATION":"53.0552","REF_FRAME":"TEME","CENTER_NAME":"EARTH","SITE":"AFETR","GP_ID":"191102622","LAUNCH_DATE":"2021-04-07","SEMIMAJOR_AXIS":"6925.361","FILE":"3232651","MEAN_MOTION":"15.06395833","ELEMENT_SET_NO":"999","MEAN_MOTION_DOT":"0.00001228","APOAPSIS":"548.459","COUNTRY_CODE":"US","RA_OF_ASC_NODE":"317.9438"},{"COUNTRY_CODE":"US","RA_OF_ASC_NODE":"306.5686","APOAPSIS":"548.680","MEAN_MOTION_DOT":"-0.00000349","ELEMENT_SET_NO":"999","FILE":"3232651","MEAN_MOTION":"15.06399651","SEMIMAJOR_AXIS":"6925.350","LAUNCH_DATE":"2021-04-07","GP_ID":"191103372","SITE":"AFETR","CENTER_NAME":"EARTH","REF_FRAME":"TEME","INCLINATION":"53.0551","REV_AT_EPOCH":"3804","TLE_LINE2":"2 48110  53.0551 306.5686 0002116  51.7598 308.3582 15.06399651 38043","CLASSIFICATION_TYPE":"U","ECCENTRICITY":"0.00021160","ARG_OF_PERICENTER":"51.7598","TLE_LINE1":"1 48110U 21027U   21338.73404388 -.00000349  00000-0 -44984-5 0  9992","MEAN_MOTION_DDOT":"0.0000000000000","TIME_SYSTEM":"UTC","RCS_SIZE":"LARGE","MEAN_ELEMENT_THEORY":"SGP4","EPOCH":"2021-12-04T17:37:01.391232","EPHEMERIS_TYPE":"0","DECAY_DATE":null,"PERIAPSIS":"545.749","BSTAR":"-0.00000449840000","MEAN_ANOMALY":"308.3582","OBJECT_NAME":"STARLINK-2447","NORAD_CAT_ID":"48110","OBJECT_TYPE":"PAYLOAD","OBJECT_ID":"2021-027U","PERIOD":"95.592"},{"BSTAR":"-0.00010225000000","PERIAPSIS":"545.833","EPOCH":"2021-12-04T07:57:08.112960","DECAY_DATE":null,"EPHEMERIS_TYPE":"0","TIME_SYSTEM":"UTC","RCS_SIZE":"LARGE","MEAN_ELEMENT_THEORY":"SGP4","OBJECT_ID":"2021-027V","PERIOD":"95.593","OBJECT_TYPE":"PAYLOAD","OBJECT_NAME":"STARLINK-2448","NORAD_CAT_ID":"48111","MEAN_ANOMALY":"297.0301","FILE":"3232651","MEAN_MOTION":"15.06391626","SEMIMAJOR_AXIS":"6925.374","GP_ID":"191104123","SITE":"AFETR","LAUNCH_DATE":"2021-04-07","MEAN_MOTION_DOT":"-0.00001804","ELEMENT_SET_NO":"999","COUNTRY_CODE":"US","RA_OF_ASC_NODE":"308.3873","APOAPSIS":"548.645","ARG_OF_PERICENTER":"63.0895","MEAN_MOTION_DDOT":"0.0000000000000","TLE_LINE1":"1 48111U 21027V   21338.33134390 -.00001804  00000-0 -10225-3 0  9998","ECCENTRICITY":"0.00020300","TLE_LINE2":"2 48111  53.0559 308.3873 0002030  63.0895 297.0301 15.06391626 37980","REV_AT_EPOCH":"3798","CLASSIFICATION_TYPE":"U","REF_FRAME":"TEME","CENTER_NAME":"EARTH","INCLINATION":"53.0559"},{"PERIOD":"95.593","OBJECT_ID":"2021-027W","OBJECT_TYPE":"PAYLOAD","MEAN_ANOMALY":"303.8024","NORAD_CAT_ID":"48112","OBJECT_NAME":"STARLINK-2449","PERIAPSIS":"545.859","BSTAR":"-0.00002006500000","MEAN_ELEMENT_THEORY":"SGP4","RCS_SIZE":"LARGE","TIME_SYSTEM":"UTC","DECAY_DATE":null,"EPHEMERIS_TYPE":"0","EPOCH":"2021-12-04T10:31:42.892032","ECCENTRICITY":"0.00019880","MEAN_MOTION_DDOT":"0.0000000000000","TLE_LINE1":"1 48112U 21027W   21338.43869088 -.00000580  00000-0 -20065-4 0  9993","ARG_OF_PERICENTER":"56.3155","INCLINATION":"53.0545","REF_FRAME":"TEME","CENTER_NAME":"EARTH","CLASSIFICATION_TYPE":"U","REV_AT_EPOCH":"3778","TLE_LINE2":"2 48112  53.0545 322.9084 0001988  56.3155 303.8024 15.06392677 37780","ELEMENT_SET_NO":"999","MEAN_MOTION_DOT":"-0.00000580","GP_ID":"191104374","LAUNCH_DATE":"2021-04-07","SITE":"AFETR","FILE":"3232651","MEAN_MOTION":"15.06392677","SEMIMAJOR_AXIS":"6925.371","APOAPSIS":"548.613","COUNTRY_CODE":"US","RA_OF_ASC_NODE":"322.9084"},{"EPHEMERIS_TYPE":"0","DECAY_DATE":null,"EPOCH":"2021-12-04T17:19:47.580672","MEAN_ELEMENT_THEORY":"SGP4","RCS_SIZE":"LARGE","TIME_SYSTEM":"UTC","BSTAR":"-0.00009823300000","PERIAPSIS":"545.914","NORAD_CAT_ID":"48113","OBJECT_NAME":"STARLINK-2450","MEAN_ANOMALY":"312.8235","OBJECT_TYPE":"PAYLOAD","OBJECT_ID":"2021-027X","PERIOD":"95.593","APOAPSIS":"548.558","COUNTRY_CODE":"US","RA_OF_ASC_NODE":"316.6291","GP_ID":"191103122","LAUNCH_DATE":"2021-04-07","SITE":"AFETR","FILE":"3232651","SEMIMAJOR_AXIS":"6925.371","MEAN_MOTION":"15.06392755","ELEMENT_SET_NO":"999","MEAN_MOTION_DOT":"-0.00001744","CLASSIFICATION_TYPE":"U","TLE_LINE2":"2 48113  53.0565 316.6291 0001909  47.2915 312.8235 15.06392755 37881","REV_AT_EPOCH":"3788","INCLINATION":"53.0565","CENTER_NAME":"EARTH","REF_FRAME":"TEME","TLE_LINE1":"1 48113U 21027X   21338.72207848 -.00001744  00000-0 -98233-4 0  9991","MEAN_MOTION_DDOT":"0.0000000000000","ARG_OF_PERICENTER":"47.2915","ECCENTRICITY":"0.00019090"},{"PERIAPSIS":"545.946","BSTAR":"0.00003136000000","MEAN_ELEMENT_THEORY":"SGP4","TIME_SYSTEM":"UTC","RCS_SIZE":"LARGE","DECAY_DATE":null,"EPHEMERIS_TYPE":"0","EPOCH":"2021-12-04T17:58:54.482880","OBJECT_ID":"2021-027Y","PERIOD":"95.593","OBJECT_TYPE":"PAYLOAD","MEAN_ANOMALY":"309.6774","NORAD_CAT_ID":"48114","OBJECT_NAME":"STARLINK-2451","ELEMENT_SET_NO":"999","MEAN_MOTION_DOT":"0.00000185","GP_ID":"191102873","SITE":"AFETR","LAUNCH_DATE":"2021-04-07","FILE":"3232651","MEAN_MOTION":"15.06393261","SEMIMAJOR_AXIS":"6925.369","APOAPSIS":"548.522","RA_OF_ASC_NODE":"311.5133","COUNTRY_CODE":"US","ECCENTRICITY":"0.00018600","MEAN_MOTION_DDOT":"0.0000000000000","TLE_LINE1":"1 48114U 21027Y   21338.74924170  .00000185  00000-0  31360-4 0  9992","ARG_OF_PERICENTER":"50.4379","INCLINATION":"53.0572","REF_FRAME":"TEME","CENTER_NAME":"EARTH","CLASSIFICATION_TYPE":"U","REV_AT_EPOCH":"3797","TLE_LINE2":"2 48114  53.0572 311.5133 0001860  50.4379 309.6774 15.06393261 37970"},{"MEAN_MOTION_DOT":"0.00002007","ELEMENT_SET_NO":"999","MEAN_MOTION":"15.06398272","FILE":"3232651","SEMIMAJOR_AXIS":"6925.354","LAUNCH_DATE":"2021-04-07","GP_ID":"191103624","SITE":"AFETR","COUNTRY_CODE":"US","RA_OF_ASC_NODE":"308.1623","APOAPSIS":"548.847","ECCENTRICITY":"0.00023510","ARG_OF_PERICENTER":"51.9617","MEAN_MOTION_DDOT":"0.0000000000000","TLE_LINE1":"1 48115U 21027Z   21338.37926219  .00002007  00000-0  15360-3 0  9994","REF_FRAME":"TEME","CENTER_NAME":"EARTH","INCLINATION":"53.0564","TLE_LINE2":"2 48115  53.0564 308.1623 0002351  51.9617 308.1584 15.06398272 37986","REV_AT_EPOCH":"3798","CLASSIFICATION_TYPE":"U","PERIAPSIS":"545.591","BSTAR":"0.00015360000000","TIME_SYSTEM":"UTC","RCS_SIZE":"LARGE","MEAN_ELEMENT_THEORY":"SGP4","EPOCH":"2021-12-04T09:06:08.253216","DECAY_DATE":null,"EPHEMERIS_TYPE":"0","PERIOD":"95.592","OBJECT_ID":"2021-027Z","OBJECT_TYPE":"PAYLOAD","MEAN_ANOMALY":"308.1584","OBJECT_NAME":"STARLINK-2452","NORAD_CAT_ID":"48115"},{"EPHEMERIS_TYPE":"0","DECAY_DATE":null,"EPOCH":"2021-12-04T09:16:47.368704","MEAN_ELEMENT_THEORY":"SGP4","TIME_SYSTEM":"UTC","RCS_SIZE":"LARGE","BSTAR":"0.00002337500000","PERIAPSIS":"546.048","NORAD_CAT_ID":"48116","OBJECT_NAME":"STARLINK-2454","MEAN_ANOMALY":"301.1493","OBJECT_TYPE":"PAYLOAD","OBJECT_ID":"2021-027AA","PERIOD":"95.593","APOAPSIS":"548.428","COUNTRY_CODE":"US","RA_OF_ASC_NODE":"318.1436","SITE":"AFETR","GP_ID":"191103875","LAUNCH_DATE":"2021-04-07","MEAN_MOTION":"15.06391990","FILE":"3232651","SEMIMAJOR_AXIS":"6925.373","ELEMENT_SET_NO":"999","MEAN_MOTION_DOT":"0.00000067","CLASSIFICATION_TYPE":"U","TLE_LINE2":"2 48116  53.0529 318.1436 0001718  58.9664 301.1493 15.06391990 37843","REV_AT_EPOCH":"3784","INCLINATION":"53.0529","CENTER_NAME":"EARTH","REF_FRAME":"TEME","TLE_LINE1":"1 48116U 21027AA  21338.38665936  .00000067  00000-0  23375-4 0  9992","MEAN_MOTION_DDOT":"0.0000000000000","ARG_OF_PERICENTER":"58.9664","ECCENTRICITY":"0.00017180"},{"COUNTRY_CODE":"US","RA_OF_ASC_NODE":"297.0585","APOAPSIS":"548.490","FILE":"3232651","SEMIMAJOR_AXIS":"6925.386","MEAN_MOTION":"15.06387834","GP_ID":"191102623","LAUNCH_DATE":"2021-04-07","SITE":"AFETR","MEAN_MOTION_DOT":"-0.00001827","ELEMENT_SET_NO":"999","REV_AT_EPOCH":"3816","TLE_LINE2":"2 48117  53.0548 297.0585 0001789  50.2366 309.8781 15.06387834 38160","CLASSIFICATION_TYPE":"U","CENTER_NAME":"EARTH","REF_FRAME":"TEME","INCLINATION":"53.0548","ARG_OF_PERICENTER":"50.2366","TLE_LINE1":"1 48117U 21027AB  21338.62439946 -.00001827  00000-0 -10380-3 0  9998","MEAN_MOTION_DDOT":"0.0000000000000","ECCENTRICITY":"0.00017890","EPOCH":"2021-12-04T14:59:08.113344","EPHEMERIS_TYPE":"0","DECAY_DATE":null,"RCS_SIZE":"LARGE","TIME_SYSTEM":"UTC","MEAN_ELEMENT_THEORY":"SGP4","BSTAR":"-0.00010380000000","PERIAPSIS":"546.012","OBJECT_NAME":"STARLINK-2455","NORAD_CAT_ID":"48117","MEAN_ANOMALY":"309.8781","OBJECT_TYPE":"PAYLOAD","PERIOD":"95.593","OBJECT_ID":"2021-027AB"},{"BSTAR":"-0.00009369500000","PERIAPSIS":"545.927","EPOCH":"2021-12-04T07:17:21.741504","DECAY_DATE":null,"EPHEMERIS_TYPE":"0","RCS_SIZE":"LARGE","TIME_SYSTEM":"UTC","MEAN_ELEMENT_THEORY":"SGP4","OBJECT_ID":"2021-027AC","PERIOD":"95.593","OBJECT_TYPE":"PAYLOAD","OBJECT_NAME":"STARLINK-2458","NORAD_CAT_ID":"48118","MEAN_ANOMALY":"302.6040","SEMIMAJOR_AXIS":"6925.379","FILE":"3232651","MEAN_MOTION":"15.06390166","SITE":"AFETR","GP_ID":"191103373","LAUNCH_DATE":"2021-04-07","MEAN_MOTION_DOT":"-0.00001677","ELEMENT_SET_NO":"999","COUNTRY_CODE":"US","RA_OF_ASC_NODE":"298.4964","APOAPSIS":"548.560","ARG_OF_PERICENTER":"57.5132","MEAN_MOTION_DDOT":"0.0000000000000","TLE_LINE1":"1 48118U 21027AC  21338.30372386 -.00001677  00000-0 -93695-4 0  9992","ECCENTRICITY":"0.00019010","REV_AT_EPOCH":"3811","TLE_LINE2":"2 48118  53.0556 298.4964 0001901  57.5132 302.6040 15.06390166 38119","CLASSIFICATION_TYPE":"U","REF_FRAME":"TEME","CENTER_NAME":"EARTH","INCLINATION":"53.0556"}];
